<?xml version="1.0" encoding="UTF-8"?><gpx creator="Wikiloc - http://www.wikiloc.com" version="1.1" xmlns="http://www.topografix.com/GPX/1/1" xmlns:xsi="http://www.w3.org/2001/XMLSchema-instance" xsi:schemaLocation="http://www.topografix.com/GPX/1/1 http://www.topografix.com/GPX/1/1/gpx.xsd"><trk><name><![CDATA[Le Meix - Vassy]]></name><cmt><![CDATA[Le Meix - Vassy]]></cmt><desc><![CDATA[Le Meix - Vassy]]></desc><trkseg><trkpt lat="47.334528" lon="3.928728"><ele>338.067</ele><time>2026-09-26T11:28:46Z</time></trkpt><trkpt lat="47.334502" lon="3.928667"><ele>338.681</ele><time>2026-09-26T11:29:05Z</time></trkpt><trkpt lat="47.334449" lon="3.928575"><ele>339.619</ele><time>2026-09-26T11:29:23Z</time></trkpt><trkpt lat="47.334502" lon="3.928543"><ele>341.409</ele><time>2026-09-26T11:29:41Z</time></trkpt><trkpt lat="47.334472" lon="3.928476"><ele>343.298</ele><time>2026-09-26T11:30:00Z</time></trkpt><trkpt lat="47.334459" lon="3.928468"><ele>344.434</ele><time>2026-09-26T11:30:19Z</time></trkpt><trkpt lat="47.334459" lon="3.928468"><ele>345.463</ele><time>2026-09-26T11:30:38Z</time></trkpt><trkpt lat="47.334457" lon="3.928448"><ele>345.495</ele><time>2026-09-26T11:30:40Z</time></trkpt><trkpt lat="47.334442" lon="3.928428"><ele>345.229</ele><time>2026-09-26T11:30:42Z</time></trkpt><trkpt lat="47.334411" lon="3.928354"><ele>345.095</ele><time>2026-09-26T11:30:47Z</time></trkpt><trkpt lat="47.334494" lon="3.928243"><ele>344.613</ele><time>2026-09-26T11:30:51Z</time></trkpt><trkpt lat="47.334726" lon="3.927934"><ele>344.431</ele><time>2026-09-26T11:30:57Z</time></trkpt><trkpt lat="47.334939" lon="3.927649"><ele>344.412</ele><time>2026-09-26T11:31:03Z</time></trkpt><trkpt lat="47.334977" lon="3.927597"><ele>344.474</ele><time>2026-09-26T11:31:04Z</time></trkpt><trkpt lat="47.335191" lon="3.927299"><ele>344.456</ele><time>2026-09-26T11:31:08Z</time></trkpt><trkpt lat="47.335544" lon="3.926808"><ele>345.421</ele><time>2026-09-26T11:31:13Z</time></trkpt><trkpt lat="47.335774" lon="3.926489"><ele>345.409</ele><time>2026-09-26T11:31:17Z</time></trkpt><trkpt lat="47.336026" lon="3.92617"><ele>345.699</ele><time>2026-09-26T11:31:21Z</time></trkpt><trkpt lat="47.336102" lon="3.926076"><ele>345.675</ele><time>2026-09-26T11:31:22Z</time></trkpt><trkpt lat="47.336232" lon="3.92585"><ele>345.684</ele><time>2026-09-26T11:31:24Z</time></trkpt><trkpt lat="47.336283" lon="3.925723"><ele>345.656</ele><time>2026-09-26T11:31:25Z</time></trkpt><trkpt lat="47.336387" lon="3.92546"><ele>345.420</ele><time>2026-09-26T11:31:27Z</time></trkpt><trkpt lat="47.336454" lon="3.925349"><ele>345.486</ele><time>2026-09-26T11:31:28Z</time></trkpt><trkpt lat="47.336528" lon="3.925255"><ele>345.424</ele><time>2026-09-26T11:31:29Z</time></trkpt><trkpt lat="47.336705" lon="3.925124"><ele>345.282</ele><time>2026-09-26T11:31:31Z</time></trkpt><trkpt lat="47.336907" lon="3.925053"><ele>345.023</ele><time>2026-09-26T11:31:33Z</time></trkpt><trkpt lat="47.337011" lon="3.925045"><ele>344.266</ele><time>2026-09-26T11:31:34Z</time></trkpt><trkpt lat="47.337226" lon="3.925079"><ele>344.429</ele><time>2026-09-26T11:31:36Z</time></trkpt><trkpt lat="47.337423" lon="3.925163"><ele>344.021</ele><time>2026-09-26T11:31:38Z</time></trkpt><trkpt lat="47.337594" lon="3.925317"><ele>343.809</ele><time>2026-09-26T11:31:40Z</time></trkpt><trkpt lat="47.337662" lon="3.925414"><ele>343.858</ele><time>2026-09-26T11:31:41Z</time></trkpt><trkpt lat="47.337793" lon="3.925595"><ele>343.664</ele><time>2026-09-26T11:31:43Z</time></trkpt><trkpt lat="47.337864" lon="3.925659"><ele>343.443</ele><time>2026-09-26T11:31:44Z</time></trkpt><trkpt lat="47.337935" lon="3.925698"><ele>343.455</ele><time>2026-09-26T11:31:45Z</time></trkpt><trkpt lat="47.33801" lon="3.925697"><ele>343.259</ele><time>2026-09-26T11:31:46Z</time></trkpt><trkpt lat="47.338084" lon="3.925663"><ele>343.045</ele><time>2026-09-26T11:31:47Z</time></trkpt><trkpt lat="47.338164" lon="3.925469"><ele>342.813</ele><time>2026-09-26T11:31:49Z</time></trkpt><trkpt lat="47.33815" lon="3.925056"><ele>342.411</ele><time>2026-09-26T11:31:53Z</time></trkpt><trkpt lat="47.338107" lon="3.92457"><ele>341.862</ele><time>2026-09-26T11:31:58Z</time></trkpt><trkpt lat="47.338088" lon="3.924354"><ele>341.425</ele><time>2026-09-26T11:32:00Z</time></trkpt><trkpt lat="47.338036" lon="3.923882"><ele>340.826</ele><time>2026-09-26T11:32:04Z</time></trkpt><trkpt lat="47.337869" lon="3.92329"><ele>339.808</ele><time>2026-09-26T11:32:08Z</time></trkpt><trkpt lat="47.337781" lon="3.923002"><ele>339.209</ele><time>2026-09-26T11:32:10Z</time></trkpt><trkpt lat="47.337765" lon="3.922867"><ele>339.024</ele><time>2026-09-26T11:32:11Z</time></trkpt><trkpt lat="47.337764" lon="3.922747"><ele>338.640</ele><time>2026-09-26T11:32:12Z</time></trkpt><trkpt lat="47.33783" lon="3.922497"><ele>338.089</ele><time>2026-09-26T11:32:14Z</time></trkpt><trkpt lat="47.337997" lon="3.921868"><ele>336.871</ele><time>2026-09-26T11:32:18Z</time></trkpt><trkpt lat="47.338226" lon="3.921027"><ele>335.085</ele><time>2026-09-26T11:32:23Z</time></trkpt><trkpt lat="47.338344" lon="3.920792"><ele>334.471</ele><time>2026-09-26T11:32:25Z</time></trkpt><trkpt lat="47.338423" lon="3.920715"><ele>334.069</ele><time>2026-09-26T11:32:26Z</time></trkpt><trkpt lat="47.33892" lon="3.920282"><ele>332.017</ele><time>2026-09-26T11:32:31Z</time></trkpt><trkpt lat="47.339002" lon="3.920169"><ele>331.418</ele><time>2026-09-26T11:32:32Z</time></trkpt><trkpt lat="47.339153" lon="3.919943"><ele>330.681</ele><time>2026-09-26T11:32:34Z</time></trkpt><trkpt lat="47.339219" lon="3.919832"><ele>330.061</ele><time>2026-09-26T11:32:35Z</time></trkpt><trkpt lat="47.339355" lon="3.919602"><ele>329.217</ele><time>2026-09-26T11:32:37Z</time></trkpt><trkpt lat="47.33968" lon="3.919132"><ele>327.209</ele><time>2026-09-26T11:32:41Z</time></trkpt><trkpt lat="47.33997" lon="3.918607"><ele>325.050</ele><time>2026-09-26T11:32:45Z</time></trkpt><trkpt lat="47.340322" lon="3.917851"><ele>322.216</ele><time>2026-09-26T11:32:50Z</time></trkpt><trkpt lat="47.340698" lon="3.917068"><ele>319.425</ele><time>2026-09-26T11:32:55Z</time></trkpt><trkpt lat="47.34107" lon="3.916294"><ele>316.637</ele><time>2026-09-26T11:33:00Z</time></trkpt><trkpt lat="47.341124" lon="3.916148"><ele>316.071</ele><time>2026-09-26T11:33:01Z</time></trkpt><trkpt lat="47.341216" lon="3.915857"><ele>315.287</ele><time>2026-09-26T11:33:03Z</time></trkpt><trkpt lat="47.341327" lon="3.915349"><ele>313.695</ele><time>2026-09-26T11:33:07Z</time></trkpt><trkpt lat="47.341378" lon="3.915118"><ele>312.433</ele><time>2026-09-26T11:33:10Z</time></trkpt><trkpt lat="47.34137" lon="3.91505"><ele>311.024</ele><time>2026-09-26T11:33:14Z</time></trkpt><trkpt lat="47.341352" lon="3.915015"><ele>310.661</ele><time>2026-09-26T11:33:15Z</time></trkpt><trkpt lat="47.341298" lon="3.914908"><ele>310.021</ele><time>2026-09-26T11:33:17Z</time></trkpt><trkpt lat="47.341169" lon="3.914652"><ele>308.813</ele><time>2026-09-26T11:33:20Z</time></trkpt><trkpt lat="47.34094" lon="3.914201"><ele>307.209</ele><time>2026-09-26T11:33:24Z</time></trkpt><trkpt lat="47.34078" lon="3.913875"><ele>306.028</ele><time>2026-09-26T11:33:27Z</time></trkpt><trkpt lat="47.340727" lon="3.913753"><ele>304.834</ele><time>2026-09-26T11:33:30Z</time></trkpt><trkpt lat="47.340669" lon="3.91362"><ele>303.223</ele><time>2026-09-26T11:33:35Z</time></trkpt><trkpt lat="47.34062" lon="3.913508"><ele>302.635</ele><time>2026-09-26T11:33:37Z</time></trkpt><trkpt lat="47.340604" lon="3.913434"><ele>302.499</ele><time>2026-09-26T11:33:38Z</time></trkpt><trkpt lat="47.340592" lon="3.913357"><ele>302.075</ele><time>2026-09-26T11:33:39Z</time></trkpt><trkpt lat="47.34063" lon="3.913156"><ele>301.673</ele><time>2026-09-26T11:33:41Z</time></trkpt><trkpt lat="47.340727" lon="3.912973"><ele>300.861</ele><time>2026-09-26T11:33:43Z</time></trkpt><trkpt lat="47.340795" lon="3.912883"><ele>300.622</ele><time>2026-09-26T11:33:44Z</time></trkpt><trkpt lat="47.340866" lon="3.912788"><ele>300.287</ele><time>2026-09-26T11:33:45Z</time></trkpt><trkpt lat="47.341087" lon="3.912494"><ele>299.242</ele><time>2026-09-26T11:33:48Z</time></trkpt><trkpt lat="47.341182" lon="3.912292"><ele>298.426</ele><time>2026-09-26T11:33:50Z</time></trkpt><trkpt lat="47.341175" lon="3.912061"><ele>297.609</ele><time>2026-09-26T11:33:52Z</time></trkpt><trkpt lat="47.341031" lon="3.91175"><ele>296.820</ele><time>2026-09-26T11:33:55Z</time></trkpt><trkpt lat="47.340671" lon="3.911256"><ele>295.826</ele><time>2026-09-26T11:34:00Z</time></trkpt><trkpt lat="47.340611" lon="3.911154"><ele>295.625</ele><time>2026-09-26T11:34:01Z</time></trkpt><trkpt lat="47.340576" lon="3.911033"><ele>295.677</ele><time>2026-09-26T11:34:02Z</time></trkpt><trkpt lat="47.340532" lon="3.910797"><ele>295.231</ele><time>2026-09-26T11:34:04Z</time></trkpt><trkpt lat="47.34056" lon="3.910571"><ele>294.817</ele><time>2026-09-26T11:34:06Z</time></trkpt><trkpt lat="47.340594" lon="3.910459"><ele>294.665</ele><time>2026-09-26T11:34:07Z</time></trkpt><trkpt lat="47.340633" lon="3.910359"><ele>294.483</ele><time>2026-09-26T11:34:08Z</time></trkpt><trkpt lat="47.340751" lon="3.910173"><ele>294.014</ele><time>2026-09-26T11:34:10Z</time></trkpt><trkpt lat="47.340936" lon="3.910064"><ele>293.854</ele><time>2026-09-26T11:34:12Z</time></trkpt><trkpt lat="47.341038" lon="3.910027"><ele>293.656</ele><time>2026-09-26T11:34:13Z</time></trkpt><trkpt lat="47.341602" lon="3.909924"><ele>293.411</ele><time>2026-09-26T11:34:18Z</time></trkpt><trkpt lat="47.341809" lon="3.909876"><ele>293.409</ele><time>2026-09-26T11:34:20Z</time></trkpt><trkpt lat="47.34198" lon="3.909733"><ele>293.467</ele><time>2026-09-26T11:34:22Z</time></trkpt><trkpt lat="47.342019" lon="3.909656"><ele>293.463</ele><time>2026-09-26T11:34:23Z</time></trkpt><trkpt lat="47.342067" lon="3.909548"><ele>293.692</ele><time>2026-09-26T11:34:24Z</time></trkpt><trkpt lat="47.342134" lon="3.909329"><ele>293.624</ele><time>2026-09-26T11:34:26Z</time></trkpt><trkpt lat="47.342217" lon="3.908586"><ele>292.858</ele><time>2026-09-26T11:34:31Z</time></trkpt><trkpt lat="47.342254" lon="3.908248"><ele>294.244</ele><time>2026-09-26T11:34:33Z</time></trkpt><trkpt lat="47.342283" lon="3.908085"><ele>294.852</ele><time>2026-09-26T11:34:34Z</time></trkpt><trkpt lat="47.34233" lon="3.907938"><ele>294.410</ele><time>2026-09-26T11:34:35Z</time></trkpt><trkpt lat="47.342478" lon="3.907702"><ele>294.621</ele><time>2026-09-26T11:34:37Z</time></trkpt><trkpt lat="47.342948" lon="3.907073"><ele>295.253</ele><time>2026-09-26T11:34:42Z</time></trkpt><trkpt lat="47.343214" lon="3.906719"><ele>295.804</ele><time>2026-09-26T11:34:45Z</time></trkpt><trkpt lat="47.343389" lon="3.906609"><ele>296.214</ele><time>2026-09-26T11:34:47Z</time></trkpt><trkpt lat="47.343569" lon="3.906642"><ele>296.609</ele><time>2026-09-26T11:34:49Z</time></trkpt><trkpt lat="47.343663" lon="3.906697"><ele>296.817</ele><time>2026-09-26T11:34:50Z</time></trkpt><trkpt lat="47.344081" lon="3.906986"><ele>298.093</ele><time>2026-09-26T11:34:54Z</time></trkpt><trkpt lat="47.344311" lon="3.90715"><ele>298.662</ele><time>2026-09-26T11:34:56Z</time></trkpt><trkpt lat="47.344404" lon="3.907272"><ele>298.864</ele><time>2026-09-26T11:34:57Z</time></trkpt><trkpt lat="47.344495" lon="3.907389"><ele>299.298</ele><time>2026-09-26T11:34:58Z</time></trkpt><trkpt lat="47.344633" lon="3.907687"><ele>299.844</ele><time>2026-09-26T11:35:00Z</time></trkpt><trkpt lat="47.344796" lon="3.908178"><ele>300.692</ele><time>2026-09-26T11:35:03Z</time></trkpt><trkpt lat="47.344945" lon="3.908457"><ele>301.220</ele><time>2026-09-26T11:35:05Z</time></trkpt><trkpt lat="47.3451" lon="3.908659"><ele>302.021</ele><time>2026-09-26T11:35:07Z</time></trkpt><trkpt lat="47.345174" lon="3.908715"><ele>302.412</ele><time>2026-09-26T11:35:08Z</time></trkpt><trkpt lat="47.345259" lon="3.908749"><ele>302.632</ele><time>2026-09-26T11:35:09Z</time></trkpt><trkpt lat="47.345425" lon="3.908741"><ele>303.405</ele><time>2026-09-26T11:35:11Z</time></trkpt><trkpt lat="47.345693" lon="3.908617"><ele>304.409</ele><time>2026-09-26T11:35:14Z</time></trkpt><trkpt lat="47.345773" lon="3.908544"><ele>304.823</ele><time>2026-09-26T11:35:15Z</time></trkpt><trkpt lat="47.34584" lon="3.908468"><ele>305.249</ele><time>2026-09-26T11:35:16Z</time></trkpt><trkpt lat="47.345925" lon="3.908259"><ele>306.028</ele><time>2026-09-26T11:35:18Z</time></trkpt><trkpt lat="47.345946" lon="3.908012"><ele>306.840</ele><time>2026-09-26T11:35:20Z</time></trkpt><trkpt lat="47.345926" lon="3.907879"><ele>307.244</ele><time>2026-09-26T11:35:21Z</time></trkpt><trkpt lat="47.345745" lon="3.907227"><ele>308.670</ele><time>2026-09-26T11:35:25Z</time></trkpt><trkpt lat="47.3456" lon="3.906711"><ele>309.888</ele><time>2026-09-26T11:35:28Z</time></trkpt><trkpt lat="47.345555" lon="3.906552"><ele>310.266</ele><time>2026-09-26T11:35:29Z</time></trkpt><trkpt lat="47.345493" lon="3.906404"><ele>310.637</ele><time>2026-09-26T11:35:30Z</time></trkpt><trkpt lat="47.345311" lon="3.906161"><ele>311.685</ele><time>2026-09-26T11:35:32Z</time></trkpt><trkpt lat="47.344878" lon="3.905658"><ele>313.289</ele><time>2026-09-26T11:35:36Z</time></trkpt><trkpt lat="47.344795" lon="3.905497"><ele>313.617</ele><time>2026-09-26T11:35:37Z</time></trkpt><trkpt lat="47.344541" lon="3.90479"><ele>315.609</ele><time>2026-09-26T11:35:41Z</time></trkpt><trkpt lat="47.344352" lon="3.904008"><ele>317.440</ele><time>2026-09-26T11:35:45Z</time></trkpt><trkpt lat="47.344308" lon="3.903819"><ele>317.826</ele><time>2026-09-26T11:35:46Z</time></trkpt><trkpt lat="47.344186" lon="3.90309"><ele>319.665</ele><time>2026-09-26T11:35:50Z</time></trkpt><trkpt lat="47.344187" lon="3.902747"><ele>320.417</ele><time>2026-09-26T11:35:52Z</time></trkpt><trkpt lat="47.344209" lon="3.902569"><ele>320.831</ele><time>2026-09-26T11:35:53Z</time></trkpt><trkpt lat="47.344318" lon="3.901812"><ele>322.467</ele><time>2026-09-26T11:35:57Z</time></trkpt><trkpt lat="47.344395" lon="3.90102"><ele>324.085</ele><time>2026-09-26T11:36:01Z</time></trkpt><trkpt lat="47.344543" lon="3.900494"><ele>325.223</ele><time>2026-09-26T11:36:04Z</time></trkpt><trkpt lat="47.344599" lon="3.900331"><ele>325.694</ele><time>2026-09-26T11:36:05Z</time></trkpt><trkpt lat="47.344657" lon="3.899981"><ele>326.463</ele><time>2026-09-26T11:36:07Z</time></trkpt><trkpt lat="47.344607" lon="3.899643"><ele>327.244</ele><time>2026-09-26T11:36:09Z</time></trkpt><trkpt lat="47.344563" lon="3.899472"><ele>327.818</ele><time>2026-09-26T11:36:10Z</time></trkpt><trkpt lat="47.344366" lon="3.898716"><ele>329.409</ele><time>2026-09-26T11:36:14Z</time></trkpt><trkpt lat="47.34433" lon="3.898531"><ele>329.888</ele><time>2026-09-26T11:36:15Z</time></trkpt><trkpt lat="47.3443" lon="3.898343"><ele>330.264</ele><time>2026-09-26T11:36:16Z</time></trkpt><trkpt lat="47.344316" lon="3.897961"><ele>331.023</ele><time>2026-09-26T11:36:18Z</time></trkpt><trkpt lat="47.344386" lon="3.897609"><ele>331.865</ele><time>2026-09-26T11:36:20Z</time></trkpt><trkpt lat="47.344445" lon="3.897444"><ele>332.219</ele><time>2026-09-26T11:36:21Z</time></trkpt><trkpt lat="47.344503" lon="3.897282"><ele>332.665</ele><time>2026-09-26T11:36:22Z</time></trkpt><trkpt lat="47.344637" lon="3.896956"><ele>333.413</ele><time>2026-09-26T11:36:24Z</time></trkpt><trkpt lat="47.344712" lon="3.896803"><ele>333.611</ele><time>2026-09-26T11:36:25Z</time></trkpt><trkpt lat="47.344832" lon="3.896528"><ele>334.412</ele><time>2026-09-26T11:36:27Z</time></trkpt><trkpt lat="47.344863" lon="3.896242"><ele>335.263</ele><time>2026-09-26T11:36:29Z</time></trkpt><trkpt lat="47.344765" lon="3.895954"><ele>336.244</ele><time>2026-09-26T11:36:31Z</time></trkpt><trkpt lat="47.344704" lon="3.89581"><ele>336.618</ele><time>2026-09-26T11:36:32Z</time></trkpt><trkpt lat="47.344632" lon="3.895672"><ele>337.009</ele><time>2026-09-26T11:36:33Z</time></trkpt><trkpt lat="47.34454" lon="3.895571"><ele>337.498</ele><time>2026-09-26T11:36:34Z</time></trkpt><trkpt lat="47.344155" lon="3.895351"><ele>338.674</ele><time>2026-09-26T11:36:37Z</time></trkpt><trkpt lat="47.343498" lon="3.895133"><ele>340.293</ele><time>2026-09-26T11:36:41Z</time></trkpt><trkpt lat="47.342958" lon="3.894954"><ele>341.665</ele><time>2026-09-26T11:36:44Z</time></trkpt><trkpt lat="47.34279" lon="3.894898"><ele>342.069</ele><time>2026-09-26T11:36:45Z</time></trkpt><trkpt lat="47.342346" lon="3.894751"><ele>343.495</ele><time>2026-09-26T11:36:48Z</time></trkpt><trkpt lat="47.342223" lon="3.89471"><ele>343.823</ele><time>2026-09-26T11:36:49Z</time></trkpt><trkpt lat="47.342107" lon="3.894667"><ele>344.261</ele><time>2026-09-26T11:36:50Z</time></trkpt><trkpt lat="47.342022" lon="3.894588"><ele>344.692</ele><time>2026-09-26T11:36:51Z</time></trkpt><trkpt lat="47.341959" lon="3.894469"><ele>345.048</ele><time>2026-09-26T11:36:52Z</time></trkpt><trkpt lat="47.341933" lon="3.894347"><ele>345.461</ele><time>2026-09-26T11:36:53Z</time></trkpt><trkpt lat="47.341923" lon="3.894216"><ele>345.817</ele><time>2026-09-26T11:36:54Z</time></trkpt><trkpt lat="47.341938" lon="3.894087"><ele>346.209</ele><time>2026-09-26T11:36:55Z</time></trkpt><trkpt lat="47.342105" lon="3.893911"><ele>347.256</ele><time>2026-09-26T11:36:57Z</time></trkpt><trkpt lat="47.342424" lon="3.893766"><ele>348.422</ele><time>2026-09-26T11:37:00Z</time></trkpt><trkpt lat="47.342766" lon="3.893618"><ele>349.611</ele><time>2026-09-26T11:37:03Z</time></trkpt><trkpt lat="47.342853" lon="3.893551"><ele>350.013</ele><time>2026-09-26T11:37:04Z</time></trkpt><trkpt lat="47.34292" lon="3.893468"><ele>350.457</ele><time>2026-09-26T11:37:05Z</time></trkpt><trkpt lat="47.342974" lon="3.893371"><ele>350.613</ele><time>2026-09-26T11:37:06Z</time></trkpt><trkpt lat="47.343002" lon="3.893281"><ele>351.011</ele><time>2026-09-26T11:37:07Z</time></trkpt><trkpt lat="47.343017" lon="3.893029"><ele>351.849</ele><time>2026-09-26T11:37:09Z</time></trkpt><trkpt lat="47.342921" lon="3.892598"><ele>353.080</ele><time>2026-09-26T11:37:12Z</time></trkpt><trkpt lat="47.342667" lon="3.891681"><ele>354.837</ele><time>2026-09-26T11:37:17Z</time></trkpt><trkpt lat="47.342515" lon="3.89116"><ele>356.049</ele><time>2026-09-26T11:37:20Z</time></trkpt><trkpt lat="47.342461" lon="3.891008"><ele>356.413</ele><time>2026-09-26T11:37:21Z</time></trkpt><trkpt lat="47.342387" lon="3.890877"><ele>356.609</ele><time>2026-09-26T11:37:22Z</time></trkpt><trkpt lat="47.342195" lon="3.890657"><ele>357.465</ele><time>2026-09-26T11:37:24Z</time></trkpt><trkpt lat="47.34174" lon="3.890149"><ele>359.241</ele><time>2026-09-26T11:37:28Z</time></trkpt><trkpt lat="47.34152" lon="3.889876"><ele>360.040</ele><time>2026-09-26T11:37:30Z</time></trkpt><trkpt lat="47.341443" lon="3.889715"><ele>360.292</ele><time>2026-09-26T11:37:31Z</time></trkpt><trkpt lat="47.34134" lon="3.889402"><ele>360.886</ele><time>2026-09-26T11:37:33Z</time></trkpt><trkpt lat="47.341311" lon="3.889235"><ele>361.032</ele><time>2026-09-26T11:37:34Z</time></trkpt><trkpt lat="47.341302" lon="3.889067"><ele>361.450</ele><time>2026-09-26T11:37:35Z</time></trkpt><trkpt lat="47.341306" lon="3.8889"><ele>361.628</ele><time>2026-09-26T11:37:36Z</time></trkpt><trkpt lat="47.341317" lon="3.88873"><ele>362.099</ele><time>2026-09-26T11:37:37Z</time></trkpt><trkpt lat="47.341398" lon="3.888316"><ele>362.621</ele><time>2026-09-26T11:37:39Z</time></trkpt><trkpt lat="47.341619" lon="3.887401"><ele>364.041</ele><time>2026-09-26T11:37:43Z</time></trkpt><trkpt lat="47.341672" lon="3.887182"><ele>364.405</ele><time>2026-09-26T11:37:44Z</time></trkpt><trkpt lat="47.341918" lon="3.886435"><ele>366.009</ele><time>2026-09-26T11:37:48Z</time></trkpt><trkpt lat="47.342253" lon="3.885762"><ele>367.624</ele><time>2026-09-26T11:37:52Z</time></trkpt><trkpt lat="47.342669" lon="3.885069"><ele>369.420</ele><time>2026-09-26T11:37:56Z</time></trkpt><trkpt lat="47.343002" lon="3.88449"><ele>371.029</ele><time>2026-09-26T11:37:59Z</time></trkpt><trkpt lat="47.343104" lon="3.884287"><ele>371.411</ele><time>2026-09-26T11:38:00Z</time></trkpt><trkpt lat="47.343443" lon="3.883443"><ele>373.255</ele><time>2026-09-26T11:38:04Z</time></trkpt><trkpt lat="47.343706" lon="3.882671"><ele>375.291</ele><time>2026-09-26T11:38:08Z</time></trkpt><trkpt lat="47.34377" lon="3.882359"><ele>376.269</ele><time>2026-09-26T11:38:10Z</time></trkpt><trkpt lat="47.343779" lon="3.882208"><ele>376.847</ele><time>2026-09-26T11:38:11Z</time></trkpt><trkpt lat="47.343762" lon="3.882094"><ele>377.448</ele><time>2026-09-26T11:38:12Z</time></trkpt><trkpt lat="47.343684" lon="3.881893"><ele>378.651</ele><time>2026-09-26T11:38:14Z</time></trkpt><trkpt lat="47.343438" lon="3.881656"><ele>380.001</ele><time>2026-09-26T11:38:17Z</time></trkpt><trkpt lat="47.342911" lon="3.881354"><ele>381.811</ele><time>2026-09-26T11:38:21Z</time></trkpt><trkpt lat="47.34228" lon="3.880993"><ele>384.009</ele><time>2026-09-26T11:38:25Z</time></trkpt><trkpt lat="47.342115" lon="3.880898"><ele>384.487</ele><time>2026-09-26T11:38:26Z</time></trkpt><trkpt lat="47.341609" lon="3.880608"><ele>386.013</ele><time>2026-09-26T11:38:29Z</time></trkpt><trkpt lat="47.341098" lon="3.880308"><ele>387.672</ele><time>2026-09-26T11:38:32Z</time></trkpt><trkpt lat="47.340465" lon="3.879928"><ele>389.684</ele><time>2026-09-26T11:38:36Z</time></trkpt><trkpt lat="47.340323" lon="3.879836"><ele>390.238</ele><time>2026-09-26T11:38:37Z</time></trkpt><trkpt lat="47.340076" lon="3.879591"><ele>391.474</ele><time>2026-09-26T11:38:39Z</time></trkpt><trkpt lat="47.339837" lon="3.879053"><ele>393.062</ele><time>2026-09-26T11:38:42Z</time></trkpt><trkpt lat="47.339529" lon="3.878226"><ele>395.450</ele><time>2026-09-26T11:38:46Z</time></trkpt><trkpt lat="47.339068" lon="3.877497"><ele>397.851</ele><time>2026-09-26T11:38:50Z</time></trkpt><trkpt lat="47.338596" lon="3.876827"><ele>400.091</ele><time>2026-09-26T11:38:54Z</time></trkpt><trkpt lat="47.338483" lon="3.876667"><ele>400.681</ele><time>2026-09-26T11:38:55Z</time></trkpt><trkpt lat="47.337982" lon="3.876066"><ele>402.819</ele><time>2026-09-26T11:38:59Z</time></trkpt><trkpt lat="47.33747" lon="3.875466"><ele>404.409</ele><time>2026-09-26T11:39:03Z</time></trkpt><trkpt lat="47.337357" lon="3.875299"><ele>404.831</ele><time>2026-09-26T11:39:04Z</time></trkpt><trkpt lat="47.337161" lon="3.874921"><ele>405.447</ele><time>2026-09-26T11:39:06Z</time></trkpt><trkpt lat="47.336811" lon="3.874137"><ele>406.816</ele><time>2026-09-26T11:39:10Z</time></trkpt><trkpt lat="47.336732" lon="3.873959"><ele>407.098</ele><time>2026-09-26T11:39:11Z</time></trkpt><trkpt lat="47.336501" lon="3.873251"><ele>408.422</ele><time>2026-09-26T11:39:15Z</time></trkpt><trkpt lat="47.336435" lon="3.872862"><ele>409.028</ele><time>2026-09-26T11:39:17Z</time></trkpt><trkpt lat="47.336422" lon="3.872674"><ele>409.476</ele><time>2026-09-26T11:39:18Z</time></trkpt><trkpt lat="47.336422" lon="3.872486"><ele>409.814</ele><time>2026-09-26T11:39:19Z</time></trkpt><trkpt lat="47.336443" lon="3.872088"><ele>410.675</ele><time>2026-09-26T11:39:21Z</time></trkpt><trkpt lat="47.336605" lon="3.871312"><ele>412.212</ele><time>2026-09-26T11:39:25Z</time></trkpt><trkpt lat="47.336639" lon="3.871154"><ele>412.432</ele><time>2026-09-26T11:39:26Z</time></trkpt><trkpt lat="47.336644" lon="3.87091"><ele>413.205</ele><time>2026-09-26T11:39:28Z</time></trkpt><trkpt lat="47.336531" lon="3.870479"><ele>414.209</ele><time>2026-09-26T11:39:31Z</time></trkpt><trkpt lat="47.336376" lon="3.869867"><ele>415.073</ele><time>2026-09-26T11:39:34Z</time></trkpt><trkpt lat="47.33613" lon="3.868891"><ele>415.869</ele><time>2026-09-26T11:39:38Z</time></trkpt><trkpt lat="47.336066" lon="3.868638"><ele>416.068</ele><time>2026-09-26T11:39:39Z</time></trkpt><trkpt lat="47.335849" lon="3.867902"><ele>416.650</ele><time>2026-09-26T11:39:42Z</time></trkpt><trkpt lat="47.335755" lon="3.867684"><ele>416.614</ele><time>2026-09-26T11:39:43Z</time></trkpt><trkpt lat="47.335391" lon="3.866858"><ele>417.070</ele><time>2026-09-26T11:39:47Z</time></trkpt><trkpt lat="47.335297" lon="3.866659"><ele>417.088</ele><time>2026-09-26T11:39:48Z</time></trkpt><trkpt lat="47.334958" lon="3.865911"><ele>417.076</ele><time>2026-09-26T11:39:52Z</time></trkpt><trkpt lat="47.3349" lon="3.865571"><ele>417.247</ele><time>2026-09-26T11:39:54Z</time></trkpt><trkpt lat="47.334908" lon="3.865253"><ele>417.286</ele><time>2026-09-26T11:39:56Z</time></trkpt><trkpt lat="47.334931" lon="3.865086"><ele>417.460</ele><time>2026-09-26T11:39:57Z</time></trkpt><trkpt lat="47.335085" lon="3.864508"><ele>417.426</ele><time>2026-09-26T11:40:00Z</time></trkpt><trkpt lat="47.335325" lon="3.86361"><ele>417.609</ele><time>2026-09-26T11:40:04Z</time></trkpt><trkpt lat="47.335451" lon="3.863148"><ele>417.660</ele><time>2026-09-26T11:40:06Z</time></trkpt><trkpt lat="47.335615" lon="3.862496"><ele>417.896</ele><time>2026-09-26T11:40:09Z</time></trkpt><trkpt lat="47.335665" lon="3.862154"><ele>417.695</ele><time>2026-09-26T11:40:11Z</time></trkpt><trkpt lat="47.335656" lon="3.862"><ele>417.627</ele><time>2026-09-26T11:40:12Z</time></trkpt><trkpt lat="47.33562" lon="3.861852"><ele>417.491</ele><time>2026-09-26T11:40:13Z</time></trkpt><trkpt lat="47.335501" lon="3.861592"><ele>418.097</ele><time>2026-09-26T11:40:15Z</time></trkpt><trkpt lat="47.335126" lon="3.861111"><ele>417.015</ele><time>2026-09-26T11:40:19Z</time></trkpt><trkpt lat="47.33492" lon="3.860876"><ele>416.883</ele><time>2026-09-26T11:40:21Z</time></trkpt><trkpt lat="47.334834" lon="3.860742"><ele>416.654</ele><time>2026-09-26T11:40:22Z</time></trkpt><trkpt lat="47.33477" lon="3.860593"><ele>416.699</ele><time>2026-09-26T11:40:23Z</time></trkpt><trkpt lat="47.334629" lon="3.860107"><ele>416.207</ele><time>2026-09-26T11:40:26Z</time></trkpt><trkpt lat="47.334519" lon="3.85968"><ele>416.027</ele><time>2026-09-26T11:40:29Z</time></trkpt><trkpt lat="47.334479" lon="3.859487"><ele>415.809</ele><time>2026-09-26T11:40:32Z</time></trkpt><trkpt lat="47.334483" lon="3.859458"><ele>415.861</ele><time>2026-09-26T11:40:36Z</time></trkpt><trkpt lat="47.334459" lon="3.859403"><ele>415.857</ele><time>2026-09-26T11:40:38Z</time></trkpt><trkpt lat="47.334422" lon="3.859381"><ele>415.696</ele><time>2026-09-26T11:40:39Z</time></trkpt><trkpt lat="47.334234" lon="3.859111"><ele>415.468</ele><time>2026-09-26T11:40:43Z</time></trkpt><trkpt lat="47.333928" lon="3.858765"><ele>415.412</ele><time>2026-09-26T11:40:47Z</time></trkpt><trkpt lat="47.333843" lon="3.858669"><ele>415.468</ele><time>2026-09-26T11:40:48Z</time></trkpt><trkpt lat="47.333707" lon="3.858438"><ele>415.646</ele><time>2026-09-26T11:40:50Z</time></trkpt><trkpt lat="47.333641" lon="3.858146"><ele>415.634</ele><time>2026-09-26T11:40:52Z</time></trkpt><trkpt lat="47.333632" lon="3.85799"><ele>415.415</ele><time>2026-09-26T11:40:53Z</time></trkpt><trkpt lat="47.33364" lon="3.857823"><ele>416.296</ele><time>2026-09-26T11:40:54Z</time></trkpt><trkpt lat="47.333684" lon="3.857476"><ele>416.231</ele><time>2026-09-26T11:40:56Z</time></trkpt><trkpt lat="47.333893" lon="3.856529"><ele>416.824</ele><time>2026-09-26T11:41:01Z</time></trkpt><trkpt lat="47.333937" lon="3.856328"><ele>417.009</ele><time>2026-09-26T11:41:02Z</time></trkpt><trkpt lat="47.334121" lon="3.855507"><ele>417.681</ele><time>2026-09-26T11:41:06Z</time></trkpt><trkpt lat="47.33421" lon="3.855121"><ele>418.027</ele><time>2026-09-26T11:41:08Z</time></trkpt><trkpt lat="47.334294" lon="3.854757"><ele>418.296</ele><time>2026-09-26T11:41:10Z</time></trkpt><trkpt lat="47.33435" lon="3.854387"><ele>418.448</ele><time>2026-09-26T11:41:12Z</time></trkpt><trkpt lat="47.33429" lon="3.853825"><ele>418.872</ele><time>2026-09-26T11:41:15Z</time></trkpt><trkpt lat="47.334173" lon="3.852982"><ele>419.468</ele><time>2026-09-26T11:41:19Z</time></trkpt><trkpt lat="47.33414" lon="3.852755"><ele>419.696</ele><time>2026-09-26T11:41:20Z</time></trkpt><trkpt lat="47.334053" lon="3.852114"><ele>420.034</ele><time>2026-09-26T11:41:23Z</time></trkpt><trkpt lat="47.334042" lon="3.851915"><ele>420.275</ele><time>2026-09-26T11:41:24Z</time></trkpt><trkpt lat="47.334046" lon="3.851729"><ele>420.645</ele><time>2026-09-26T11:41:25Z</time></trkpt><trkpt lat="47.334105" lon="3.851398"><ele>421.047</ele><time>2026-09-26T11:41:27Z</time></trkpt><trkpt lat="47.334232" lon="3.851127"><ele>421.411</ele><time>2026-09-26T11:41:29Z</time></trkpt><trkpt lat="47.33432" lon="3.851009"><ele>421.609</ele><time>2026-09-26T11:41:30Z</time></trkpt><trkpt lat="47.334832" lon="3.850369"><ele>422.026</ele><time>2026-09-26T11:41:35Z</time></trkpt><trkpt lat="47.334932" lon="3.850244"><ele>422.042</ele><time>2026-09-26T11:41:36Z</time></trkpt><trkpt lat="47.335007" lon="3.850109"><ele>422.011</ele><time>2026-09-26T11:41:37Z</time></trkpt><trkpt lat="47.335084" lon="3.849782"><ele>421.863</ele><time>2026-09-26T11:41:39Z</time></trkpt><trkpt lat="47.335096" lon="3.84921"><ele>421.417</ele><time>2026-09-26T11:41:42Z</time></trkpt><trkpt lat="47.33508" lon="3.848258"><ele>421.063</ele><time>2026-09-26T11:41:46Z</time></trkpt><trkpt lat="47.335072" lon="3.847769"><ele>419.061</ele><time>2026-09-26T11:41:48Z</time></trkpt><trkpt lat="47.335051" lon="3.846786"><ele>419.889</ele><time>2026-09-26T11:41:52Z</time></trkpt><trkpt lat="47.335019" lon="3.846293"><ele>419.690</ele><time>2026-09-26T11:41:54Z</time></trkpt><trkpt lat="47.334946" lon="3.845296"><ele>419.243</ele><time>2026-09-26T11:41:58Z</time></trkpt><trkpt lat="47.334889" lon="3.844802"><ele>419.064</ele><time>2026-09-26T11:42:00Z</time></trkpt><trkpt lat="47.334758" lon="3.843847"><ele>418.610</ele><time>2026-09-26T11:42:04Z</time></trkpt><trkpt lat="47.334719" lon="3.843615"><ele>418.409</ele><time>2026-09-26T11:42:05Z</time></trkpt><trkpt lat="47.334566" lon="3.8427"><ele>417.816</ele><time>2026-09-26T11:42:09Z</time></trkpt><trkpt lat="47.33449" lon="3.842241"><ele>417.422</ele><time>2026-09-26T11:42:11Z</time></trkpt><trkpt lat="47.334336" lon="3.841323"><ele>416.881</ele><time>2026-09-26T11:42:15Z</time></trkpt><trkpt lat="47.334271" lon="3.8409"><ele>416.663</ele><time>2026-09-26T11:42:17Z</time></trkpt><trkpt lat="47.334251" lon="3.840714"><ele>416.477</ele><time>2026-09-26T11:42:18Z</time></trkpt><trkpt lat="47.334251" lon="3.840515"><ele>416.243</ele><time>2026-09-26T11:42:19Z</time></trkpt><trkpt lat="47.334291" lon="3.840131"><ele>416.061</ele><time>2026-09-26T11:42:21Z</time></trkpt><trkpt lat="47.334425" lon="3.839345"><ele>415.049</ele><time>2026-09-26T11:42:25Z</time></trkpt><trkpt lat="47.334475" lon="3.839162"><ele>414.650</ele><time>2026-09-26T11:42:26Z</time></trkpt><trkpt lat="47.334641" lon="3.838597"><ele>413.484</ele><time>2026-09-26T11:42:29Z</time></trkpt><trkpt lat="47.334878" lon="3.837789"><ele>411.807</ele><time>2026-09-26T11:42:33Z</time></trkpt><trkpt lat="47.334938" lon="3.837585"><ele>411.417</ele><time>2026-09-26T11:42:34Z</time></trkpt><trkpt lat="47.335146" lon="3.836827"><ele>409.809</ele><time>2026-09-26T11:42:38Z</time></trkpt><trkpt lat="47.335302" lon="3.836353"><ele>408.450</ele><time>2026-09-26T11:42:41Z</time></trkpt><trkpt lat="47.335554" lon="3.836116"><ele>407.026</ele><time>2026-09-26T11:42:44Z</time></trkpt><trkpt lat="47.335643" lon="3.836047"><ele>406.655</ele><time>2026-09-26T11:42:45Z</time></trkpt><trkpt lat="47.33572" lon="3.835958"><ele>406.227</ele><time>2026-09-26T11:42:46Z</time></trkpt><trkpt lat="47.335775" lon="3.835848"><ele>405.811</ele><time>2026-09-26T11:42:47Z</time></trkpt><trkpt lat="47.335807" lon="3.835599"><ele>405.017</ele><time>2026-09-26T11:42:49Z</time></trkpt><trkpt lat="47.33578" lon="3.835161"><ele>403.615</ele><time>2026-09-26T11:42:52Z</time></trkpt><trkpt lat="47.335732" lon="3.834489"><ele>401.873</ele><time>2026-09-26T11:42:56Z</time></trkpt><trkpt lat="47.335773" lon="3.834192"><ele>401.014</ele><time>2026-09-26T11:42:58Z</time></trkpt><trkpt lat="47.335811" lon="3.834059"><ele>400.859</ele><time>2026-09-26T11:42:59Z</time></trkpt><trkpt lat="47.33587" lon="3.833932"><ele>400.403</ele><time>2026-09-26T11:43:00Z</time></trkpt><trkpt lat="47.336019" lon="3.833705"><ele>399.423</ele><time>2026-09-26T11:43:02Z</time></trkpt><trkpt lat="47.3362" lon="3.833562"><ele>398.609</ele><time>2026-09-26T11:43:04Z</time></trkpt><trkpt lat="47.336298" lon="3.833516"><ele>398.217</ele><time>2026-09-26T11:43:05Z</time></trkpt><trkpt lat="47.336652" lon="3.833457"><ele>397.073</ele><time>2026-09-26T11:43:08Z</time></trkpt><trkpt lat="47.33709" lon="3.833399"><ele>395.662</ele><time>2026-09-26T11:43:11Z</time></trkpt><trkpt lat="47.337756" lon="3.833312"><ele>394.054</ele><time>2026-09-26T11:43:15Z</time></trkpt><trkpt lat="47.338093" lon="3.833268"><ele>393.248</ele><time>2026-09-26T11:43:17Z</time></trkpt><trkpt lat="47.338754" lon="3.833164"><ele>391.464</ele><time>2026-09-26T11:43:21Z</time></trkpt><trkpt lat="47.338916" lon="3.833138"><ele>391.092</ele><time>2026-09-26T11:43:22Z</time></trkpt><trkpt lat="47.33956" lon="3.833033"><ele>389.440</ele><time>2026-09-26T11:43:26Z</time></trkpt><trkpt lat="47.34003" lon="3.832957"><ele>388.281</ele><time>2026-09-26T11:43:29Z</time></trkpt><trkpt lat="47.340327" lon="3.832909"><ele>387.626</ele><time>2026-09-26T11:43:31Z</time></trkpt><trkpt lat="47.34089" lon="3.832818"><ele>386.447</ele><time>2026-09-26T11:43:35Z</time></trkpt><trkpt lat="47.341145" lon="3.832705"><ele>385.811</ele><time>2026-09-26T11:43:37Z</time></trkpt><trkpt lat="47.341268" lon="3.832632"><ele>385.609</ele><time>2026-09-26T11:43:38Z</time></trkpt><trkpt lat="47.341387" lon="3.832532"><ele>385.444</ele><time>2026-09-26T11:43:39Z</time></trkpt><trkpt lat="47.34161" lon="3.832298"><ele>385.030</ele><time>2026-09-26T11:43:41Z</time></trkpt><trkpt lat="47.342046" lon="3.831708"><ele>384.259</ele><time>2026-09-26T11:43:45Z</time></trkpt><trkpt lat="47.342158" lon="3.831554"><ele>384.011</ele><time>2026-09-26T11:43:46Z</time></trkpt><trkpt lat="47.342473" lon="3.831124"><ele>383.425</ele><time>2026-09-26T11:43:49Z</time></trkpt><trkpt lat="47.342788" lon="3.830693"><ele>382.691</ele><time>2026-09-26T11:43:53Z</time></trkpt><trkpt lat="47.343123" lon="3.830253"><ele>381.849</ele><time>2026-09-26T11:43:58Z</time></trkpt><trkpt lat="47.343301" lon="3.830113"><ele>381.617</ele><time>2026-09-26T11:44:00Z</time></trkpt><trkpt lat="47.343399" lon="3.830042"><ele>381.658</ele><time>2026-09-26T11:44:01Z</time></trkpt><trkpt lat="47.343503" lon="3.830012"><ele>381.496</ele><time>2026-09-26T11:44:02Z</time></trkpt><trkpt lat="47.343717" lon="3.830016"><ele>381.231</ele><time>2026-09-26T11:44:04Z</time></trkpt><trkpt lat="47.344307" lon="3.830098"><ele>380.824</ele><time>2026-09-26T11:44:09Z</time></trkpt><trkpt lat="47.344654" lon="3.830021"><ele>380.209</ele><time>2026-09-26T11:44:12Z</time></trkpt><trkpt lat="47.345163" lon="3.829801"><ele>379.491</ele><time>2026-09-26T11:44:16Z</time></trkpt><trkpt lat="47.345294" lon="3.829751"><ele>379.237</ele><time>2026-09-26T11:44:17Z</time></trkpt><trkpt lat="47.345659" lon="3.82944"><ele>378.626</ele><time>2026-09-26T11:44:20Z</time></trkpt><trkpt lat="47.345782" lon="3.829336"><ele>378.298</ele><time>2026-09-26T11:44:21Z</time></trkpt><trkpt lat="47.345916" lon="3.829284"><ele>378.062</ele><time>2026-09-26T11:44:22Z</time></trkpt><trkpt lat="47.346185" lon="3.82921"><ele>377.658</ele><time>2026-09-26T11:44:24Z</time></trkpt><trkpt lat="47.346405" lon="3.829101"><ele>377.046</ele><time>2026-09-26T11:44:26Z</time></trkpt><trkpt lat="47.346503" lon="3.82901"><ele>376.834</ele><time>2026-09-26T11:44:27Z</time></trkpt><trkpt lat="47.346573" lon="3.828881"><ele>376.435</ele><time>2026-09-26T11:44:28Z</time></trkpt><trkpt lat="47.346713" lon="3.828581"><ele>376.088</ele><time>2026-09-26T11:44:30Z</time></trkpt><trkpt lat="47.346929" lon="3.828051"><ele>375.224</ele><time>2026-09-26T11:44:33Z</time></trkpt><trkpt lat="47.347024" lon="3.827902"><ele>374.826</ele><time>2026-09-26T11:44:34Z</time></trkpt><trkpt lat="47.347512" lon="3.827418"><ele>373.609</ele><time>2026-09-26T11:44:38Z</time></trkpt><trkpt lat="47.348028" lon="3.826915"><ele>372.290</ele><time>2026-09-26T11:44:42Z</time></trkpt><trkpt lat="47.348402" lon="3.826548"><ele>371.226</ele><time>2026-09-26T11:44:45Z</time></trkpt><trkpt lat="47.348706" lon="3.826216"><ele>370.285</ele><time>2026-09-26T11:44:48Z</time></trkpt><trkpt lat="47.3488" lon="3.826107"><ele>369.857</ele><time>2026-09-26T11:44:49Z</time></trkpt><trkpt lat="47.349151" lon="3.825353"><ele>367.841</ele><time>2026-09-26T11:44:54Z</time></trkpt><trkpt lat="47.349472" lon="3.824624"><ele>365.877</ele><time>2026-09-26T11:44:59Z</time></trkpt><trkpt lat="47.349521" lon="3.824493"><ele>365.425</ele><time>2026-09-26T11:45:00Z</time></trkpt><trkpt lat="47.349704" lon="3.823944"><ele>363.613</ele><time>2026-09-26T11:45:05Z</time></trkpt><trkpt lat="47.349811" lon="3.823301"><ele>361.664</ele><time>2026-09-26T11:45:11Z</time></trkpt><trkpt lat="47.349882" lon="3.822824"><ele>360.082</ele><time>2026-09-26T11:45:15Z</time></trkpt><trkpt lat="47.349925" lon="3.822711"><ele>359.643</ele><time>2026-09-26T11:45:16Z</time></trkpt><trkpt lat="47.349969" lon="3.822602"><ele>359.217</ele><time>2026-09-26T11:45:17Z</time></trkpt><trkpt lat="47.350084" lon="3.822409"><ele>358.409</ele><time>2026-09-26T11:45:19Z</time></trkpt><trkpt lat="47.35041" lon="3.822082"><ele>356.620</ele><time>2026-09-26T11:45:23Z</time></trkpt><trkpt lat="47.350885" lon="3.821611"><ele>354.496</ele><time>2026-09-26T11:45:28Z</time></trkpt><trkpt lat="47.351369" lon="3.821154"><ele>352.425</ele><time>2026-09-26T11:45:33Z</time></trkpt><trkpt lat="47.351862" lon="3.820692"><ele>350.457</ele><time>2026-09-26T11:45:38Z</time></trkpt><trkpt lat="47.352166" lon="3.820425"><ele>349.241</ele><time>2026-09-26T11:45:41Z</time></trkpt><trkpt lat="47.352257" lon="3.820328"><ele>348.887</ele><time>2026-09-26T11:45:42Z</time></trkpt><trkpt lat="47.35238" lon="3.820117"><ele>348.265</ele><time>2026-09-26T11:45:44Z</time></trkpt><trkpt lat="47.352436" lon="3.819876"><ele>347.433</ele><time>2026-09-26T11:45:46Z</time></trkpt><trkpt lat="47.352448" lon="3.819763"><ele>347.084</ele><time>2026-09-26T11:45:47Z</time></trkpt><trkpt lat="47.352448" lon="3.819637"><ele>346.683</ele><time>2026-09-26T11:45:48Z</time></trkpt><trkpt lat="47.352399" lon="3.819406"><ele>345.825</ele><time>2026-09-26T11:45:50Z</time></trkpt><trkpt lat="47.352306" lon="3.819183"><ele>344.817</ele><time>2026-09-26T11:45:52Z</time></trkpt><trkpt lat="47.352238" lon="3.819097"><ele>344.409</ele><time>2026-09-26T11:45:53Z</time></trkpt><trkpt lat="47.352158" lon="3.819023"><ele>344.050</ele><time>2026-09-26T11:45:54Z</time></trkpt><trkpt lat="47.35198" lon="3.818911"><ele>343.276</ele><time>2026-09-26T11:45:56Z</time></trkpt><trkpt lat="47.351574" lon="3.818677"><ele>341.485</ele><time>2026-09-26T11:46:00Z</time></trkpt><trkpt lat="47.351477" lon="3.818595"><ele>341.087</ele><time>2026-09-26T11:46:01Z</time></trkpt><trkpt lat="47.351378" lon="3.81852"><ele>340.611</ele><time>2026-09-26T11:46:02Z</time></trkpt><trkpt lat="47.351182" lon="3.818411"><ele>339.617</ele><time>2026-09-26T11:46:04Z</time></trkpt><trkpt lat="47.350859" lon="3.818396"><ele>338.245</ele><time>2026-09-26T11:46:07Z</time></trkpt><trkpt lat="47.350498" lon="3.818457"><ele>336.843</ele><time>2026-09-26T11:46:10Z</time></trkpt><trkpt lat="47.35026" lon="3.818457"><ele>335.874</ele><time>2026-09-26T11:46:12Z</time></trkpt><trkpt lat="47.350051" lon="3.818285"><ele>335.017</ele><time>2026-09-26T11:46:14Z</time></trkpt><trkpt lat="47.349894" lon="3.818099"><ele>334.287</ele><time>2026-09-26T11:46:16Z</time></trkpt><trkpt lat="47.349837" lon="3.8178"><ele>333.215</ele><time>2026-09-26T11:46:18Z</time></trkpt><trkpt lat="47.349846" lon="3.81768"><ele>332.809</ele><time>2026-09-26T11:46:19Z</time></trkpt><trkpt lat="47.349876" lon="3.817528"><ele>332.243</ele><time>2026-09-26T11:46:20Z</time></trkpt><trkpt lat="47.349951" lon="3.817186"><ele>331.239</ele><time>2026-09-26T11:46:22Z</time></trkpt><trkpt lat="47.350156" lon="3.816406"><ele>329.078</ele><time>2026-09-26T11:46:26Z</time></trkpt><trkpt lat="47.350205" lon="3.816207"><ele>328.660</ele><time>2026-09-26T11:46:27Z</time></trkpt><trkpt lat="47.350242" lon="3.816018"><ele>328.064</ele><time>2026-09-26T11:46:28Z</time></trkpt><trkpt lat="47.350356" lon="3.815703"><ele>327.060</ele><time>2026-09-26T11:46:30Z</time></trkpt><trkpt lat="47.350488" lon="3.815464"><ele>325.898</ele><time>2026-09-26T11:46:32Z</time></trkpt><trkpt lat="47.35053" lon="3.815348"><ele>325.286</ele><time>2026-09-26T11:46:33Z</time></trkpt><trkpt lat="47.350571" lon="3.815232"><ele>324.897</ele><time>2026-09-26T11:46:34Z</time></trkpt><trkpt lat="47.350561" lon="3.814973"><ele>323.815</ele><time>2026-09-26T11:46:36Z</time></trkpt><trkpt lat="47.350539" lon="3.814671"><ele>322.865</ele><time>2026-09-26T11:46:38Z</time></trkpt><trkpt lat="47.350566" lon="3.814386"><ele>321.611</ele><time>2026-09-26T11:46:40Z</time></trkpt><trkpt lat="47.350665" lon="3.814174"><ele>320.409</ele><time>2026-09-26T11:46:42Z</time></trkpt><trkpt lat="47.35093" lon="3.813979"><ele>319.013</ele><time>2026-09-26T11:46:45Z</time></trkpt><trkpt lat="47.351034" lon="3.813915"><ele>318.699</ele><time>2026-09-26T11:46:46Z</time></trkpt><trkpt lat="47.351231" lon="3.813745"><ele>317.638</ele><time>2026-09-26T11:46:48Z</time></trkpt><trkpt lat="47.351395" lon="3.813498"><ele>316.870</ele><time>2026-09-26T11:46:50Z</time></trkpt><trkpt lat="47.35146" lon="3.813354"><ele>316.254</ele><time>2026-09-26T11:46:51Z</time></trkpt><trkpt lat="47.351509" lon="3.813199"><ele>315.830</ele><time>2026-09-26T11:46:52Z</time></trkpt><trkpt lat="47.351568" lon="3.812858"><ele>314.868</ele><time>2026-09-26T11:46:54Z</time></trkpt><trkpt lat="47.351525" lon="3.812092"><ele>312.646</ele><time>2026-09-26T11:46:58Z</time></trkpt><trkpt lat="47.351409" lon="3.811307"><ele>310.697</ele><time>2026-09-26T11:47:02Z</time></trkpt><trkpt lat="47.351298" lon="3.810644"><ele>308.489</ele><time>2026-09-26T11:47:06Z</time></trkpt><trkpt lat="47.351271" lon="3.810352"><ele>307.406</ele><time>2026-09-26T11:47:08Z</time></trkpt><trkpt lat="47.351247" lon="3.810103"><ele>306.426</ele><time>2026-09-26T11:47:10Z</time></trkpt><trkpt lat="47.351176" lon="3.80999"><ele>305.409</ele><time>2026-09-26T11:47:12Z</time></trkpt><trkpt lat="47.35114" lon="3.809941"><ele>304.840</ele><time>2026-09-26T11:47:13Z</time></trkpt><trkpt lat="47.351092" lon="3.809882"><ele>304.426</ele><time>2026-09-26T11:47:14Z</time></trkpt><trkpt lat="47.35098" lon="3.809743"><ele>303.485</ele><time>2026-09-26T11:47:16Z</time></trkpt><trkpt lat="47.350704" lon="3.809404"><ele>301.437</ele><time>2026-09-26T11:47:20Z</time></trkpt><trkpt lat="47.350467" lon="3.809111"><ele>299.631</ele><time>2026-09-26T11:47:23Z</time></trkpt><trkpt lat="47.350406" lon="3.808994"><ele>299.287</ele><time>2026-09-26T11:47:24Z</time></trkpt><trkpt lat="47.350169" lon="3.808425"><ele>297.025</ele><time>2026-09-26T11:47:28Z</time></trkpt><trkpt lat="47.350113" lon="3.80829"><ele>296.693</ele><time>2026-09-26T11:47:29Z</time></trkpt><trkpt lat="47.349995" lon="3.808048"><ele>296.024</ele><time>2026-09-26T11:47:31Z</time></trkpt><trkpt lat="47.349868" lon="3.807951"><ele>295.459</ele><time>2026-09-26T11:47:33Z</time></trkpt><trkpt lat="47.349781" lon="3.807905"><ele>295.003</ele><time>2026-09-26T11:47:34Z</time></trkpt><trkpt lat="47.349345" lon="3.807776"><ele>294.023</ele><time>2026-09-26T11:47:38Z</time></trkpt><trkpt lat="47.348812" lon="3.807636"><ele>293.209</ele><time>2026-09-26T11:47:42Z</time></trkpt><trkpt lat="47.348691" lon="3.807581"><ele>293.077</ele><time>2026-09-26T11:47:43Z</time></trkpt><trkpt lat="47.348461" lon="3.807427"><ele>292.853</ele><time>2026-09-26T11:47:45Z</time></trkpt><trkpt lat="47.348376" lon="3.807313"><ele>292.682</ele><time>2026-09-26T11:47:46Z</time></trkpt><trkpt lat="47.348294" lon="3.807185"><ele>292.634</ele><time>2026-09-26T11:47:47Z</time></trkpt><trkpt lat="47.348077" lon="3.806756"><ele>292.488</ele><time>2026-09-26T11:47:50Z</time></trkpt><trkpt lat="47.348" lon="3.806617"><ele>292.254</ele><time>2026-09-26T11:47:51Z</time></trkpt><trkpt lat="47.347854" lon="3.806352"><ele>292.022</ele><time>2026-09-26T11:47:53Z</time></trkpt><trkpt lat="47.347498" lon="3.805746"><ele>292.060</ele><time>2026-09-26T11:47:58Z</time></trkpt><trkpt lat="47.347055" lon="3.805079"><ele>292.031</ele><time>2026-09-26T11:48:03Z</time></trkpt><trkpt lat="47.34673" lon="3.804597"><ele>292.093</ele><time>2026-09-26T11:48:07Z</time></trkpt><trkpt lat="47.346571" lon="3.804477"><ele>291.865</ele><time>2026-09-26T11:48:09Z</time></trkpt><trkpt lat="47.346395" lon="3.804374"><ele>291.821</ele><time>2026-09-26T11:48:11Z</time></trkpt><trkpt lat="47.346014" lon="3.804131"><ele>291.809</ele><time>2026-09-26T11:48:15Z</time></trkpt><trkpt lat="47.345488" lon="3.803643"><ele>291.851</ele><time>2026-09-26T11:48:21Z</time></trkpt><trkpt lat="47.345408" lon="3.803569"><ele>292.247</ele><time>2026-09-26T11:48:22Z</time></trkpt><trkpt lat="47.345264" lon="3.803409"><ele>292.296</ele><time>2026-09-26T11:48:24Z</time></trkpt><trkpt lat="47.345137" lon="3.803236"><ele>292.258</ele><time>2026-09-26T11:48:26Z</time></trkpt><trkpt lat="47.345065" lon="3.803028"><ele>292.432</ele><time>2026-09-26T11:48:28Z</time></trkpt><trkpt lat="47.345034" lon="3.802923"><ele>292.468</ele><time>2026-09-26T11:48:29Z</time></trkpt><trkpt lat="47.345034" lon="3.802808"><ele>292.476</ele><time>2026-09-26T11:48:30Z</time></trkpt><trkpt lat="47.345054" lon="3.802406"><ele>292.894</ele><time>2026-09-26T11:48:33Z</time></trkpt><trkpt lat="47.345084" lon="3.802129"><ele>293.065</ele><time>2026-09-26T11:48:35Z</time></trkpt><trkpt lat="47.345097" lon="3.802008"><ele>293.077</ele><time>2026-09-26T11:48:36Z</time></trkpt><trkpt lat="47.345126" lon="3.801904"><ele>293.261</ele><time>2026-09-26T11:48:37Z</time></trkpt><trkpt lat="47.345265" lon="3.801823"><ele>293.427</ele><time>2026-09-26T11:48:39Z</time></trkpt><trkpt lat="47.345613" lon="3.801767"><ele>294.009</ele><time>2026-09-26T11:48:43Z</time></trkpt><trkpt lat="47.345776" lon="3.801686"><ele>294.279</ele><time>2026-09-26T11:48:45Z</time></trkpt><trkpt lat="47.34584" lon="3.801614"><ele>294.425</ele><time>2026-09-26T11:48:46Z</time></trkpt><trkpt lat="47.345905" lon="3.801541"><ele>294.644</ele><time>2026-09-26T11:48:47Z</time></trkpt><trkpt lat="47.346073" lon="3.801275"><ele>295.056</ele><time>2026-09-26T11:48:50Z</time></trkpt><trkpt lat="47.346337" lon="3.8008"><ele>296.060</ele><time>2026-09-26T11:48:54Z</time></trkpt><trkpt lat="47.346642" lon="3.800072"><ele>297.686</ele><time>2026-09-26T11:48:59Z</time></trkpt><trkpt lat="47.346698" lon="3.79994"><ele>297.864</ele><time>2026-09-26T11:49:00Z</time></trkpt><trkpt lat="47.346803" lon="3.79969"><ele>298.412</ele><time>2026-09-26T11:49:02Z</time></trkpt><trkpt lat="47.346877" lon="3.799429"><ele>298.853</ele><time>2026-09-26T11:49:04Z</time></trkpt><trkpt lat="47.346902" lon="3.799296"><ele>299.214</ele><time>2026-09-26T11:49:05Z</time></trkpt><trkpt lat="47.346927" lon="3.799024"><ele>299.854</ele><time>2026-09-26T11:49:07Z</time></trkpt><trkpt lat="47.346893" lon="3.798411"><ele>301.009</ele><time>2026-09-26T11:49:11Z</time></trkpt><trkpt lat="47.346813" lon="3.797734"><ele>302.609</ele><time>2026-09-26T11:49:15Z</time></trkpt><trkpt lat="47.346794" lon="3.797573"><ele>303.043</ele><time>2026-09-26T11:49:16Z</time></trkpt><trkpt lat="47.346704" lon="3.797247"><ele>303.869</ele><time>2026-09-26T11:49:18Z</time></trkpt><trkpt lat="47.3466" lon="3.796936"><ele>304.828</ele><time>2026-09-26T11:49:20Z</time></trkpt><trkpt lat="47.346417" lon="3.796534"><ele>306.290</ele><time>2026-09-26T11:49:23Z</time></trkpt><trkpt lat="47.346362" lon="3.796414"><ele>306.454</ele><time>2026-09-26T11:49:24Z</time></trkpt><trkpt lat="47.346309" lon="3.796297"><ele>306.820</ele><time>2026-09-26T11:49:25Z</time></trkpt><trkpt lat="47.346256" lon="3.796088"><ele>307.478</ele><time>2026-09-26T11:49:27Z</time></trkpt><trkpt lat="47.346254" lon="3.79586"><ele>308.036</ele><time>2026-09-26T11:49:29Z</time></trkpt><trkpt lat="47.346401" lon="3.795745"><ele>308.657</ele><time>2026-09-26T11:49:31Z</time></trkpt><trkpt lat="47.346582" lon="3.795727"><ele>309.248</ele><time>2026-09-26T11:49:33Z</time></trkpt><trkpt lat="47.346753" lon="3.795697"><ele>310.061</ele><time>2026-09-26T11:49:35Z</time></trkpt><trkpt lat="47.346868" lon="3.795566"><ele>310.817</ele><time>2026-09-26T11:49:37Z</time></trkpt><trkpt lat="47.346905" lon="3.795488"><ele>311.209</ele><time>2026-09-26T11:49:38Z</time></trkpt><trkpt lat="47.346927" lon="3.795379"><ele>311.616</ele><time>2026-09-26T11:49:39Z</time></trkpt><trkpt lat="47.346978" lon="3.795122"><ele>312.662</ele><time>2026-09-26T11:49:41Z</time></trkpt><trkpt lat="47.347041" lon="3.794807"><ele>313.471</ele><time>2026-09-26T11:49:43Z</time></trkpt><trkpt lat="47.347101" lon="3.794639"><ele>313.873</ele><time>2026-09-26T11:49:44Z</time></trkpt><trkpt lat="47.347168" lon="3.794479"><ele>314.287</ele><time>2026-09-26T11:49:45Z</time></trkpt><trkpt lat="47.347319" lon="3.794171"><ele>315.233</ele><time>2026-09-26T11:49:47Z</time></trkpt><trkpt lat="47.347472" lon="3.793888"><ele>316.211</ele><time>2026-09-26T11:49:49Z</time></trkpt><trkpt lat="47.34752" lon="3.793752"><ele>316.689</ele><time>2026-09-26T11:49:50Z</time></trkpt><trkpt lat="47.347536" lon="3.793613"><ele>317.210</ele><time>2026-09-26T11:49:51Z</time></trkpt><trkpt lat="47.347564" lon="3.793243"><ele>318.874</ele><time>2026-09-26T11:49:54Z</time></trkpt><trkpt lat="47.347594" lon="3.792792"><ele>321.056</ele><time>2026-09-26T11:49:58Z</time></trkpt><trkpt lat="47.347621" lon="3.792611"><ele>322.621</ele><time>2026-09-26T11:50:01Z</time></trkpt><trkpt lat="47.347645" lon="3.792487"><ele>325.209</ele><time>2026-09-26T11:50:06Z</time></trkpt><trkpt lat="47.347604" lon="3.792378"><ele>327.269</ele><time>2026-09-26T11:50:10Z</time></trkpt><trkpt lat="47.347577" lon="3.792369"><ele>329.465</ele><time>2026-09-26T11:50:15Z</time></trkpt><trkpt lat="47.347547" lon="3.79236"><ele>330.264</ele><time>2026-09-26T11:50:17Z</time></trkpt><trkpt lat="47.347378" lon="3.792305"><ele>332.646</ele><time>2026-09-26T11:50:23Z</time></trkpt><trkpt lat="47.347215" lon="3.792153"><ele>334.010</ele><time>2026-09-26T11:50:27Z</time></trkpt><trkpt lat="47.347067" lon="3.792023"><ele>335.296</ele><time>2026-09-26T11:50:30Z</time></trkpt><trkpt lat="47.346987" lon="3.791957"><ele>335.834</ele><time>2026-09-26T11:50:32Z</time></trkpt><trkpt lat="47.346947" lon="3.791955"><ele>336.222</ele><time>2026-09-26T11:50:33Z</time></trkpt><trkpt lat="47.346862" lon="3.79195"><ele>336.833</ele><time>2026-09-26T11:50:35Z</time></trkpt><trkpt lat="47.346821" lon="3.791947"><ele>337.265</ele><time>2026-09-26T11:50:36Z</time></trkpt><trkpt lat="47.346784" lon="3.791956"><ele>337.468</ele><time>2026-09-26T11:50:37Z</time></trkpt><trkpt lat="47.346679" lon="3.792009"><ele>338.214</ele><time>2026-09-26T11:50:39Z</time></trkpt><trkpt lat="47.346561" lon="3.792115"><ele>339.009</ele><time>2026-09-26T11:50:41Z</time></trkpt><trkpt lat="47.346427" lon="3.79219"><ele>339.888</ele><time>2026-09-26T11:50:43Z</time></trkpt><trkpt lat="47.346211" lon="3.79214"><ele>340.864</ele><time>2026-09-26T11:50:46Z</time></trkpt><trkpt lat="47.345821" lon="3.791998"><ele>342.293</ele><time>2026-09-26T11:50:50Z</time></trkpt><trkpt lat="47.345497" lon="3.79185"><ele>343.615</ele><time>2026-09-26T11:50:54Z</time></trkpt><trkpt lat="47.345264" lon="3.791721"><ele>344.829</ele><time>2026-09-26T11:50:58Z</time></trkpt><trkpt lat="47.345152" lon="3.791538"><ele>345.895</ele><time>2026-09-26T11:51:01Z</time></trkpt><trkpt lat="47.345089" lon="3.791421"><ele>346.653</ele><time>2026-09-26T11:51:03Z</time></trkpt><trkpt lat="47.345064" lon="3.791288"><ele>347.441</ele><time>2026-09-26T11:51:05Z</time></trkpt><trkpt lat="47.345038" lon="3.791052"><ele>348.462</ele><time>2026-09-26T11:51:08Z</time></trkpt><trkpt lat="47.345029" lon="3.790965"><ele>348.824</ele><time>2026-09-26T11:51:09Z</time></trkpt><trkpt lat="47.34501" lon="3.790815"><ele>349.604</ele><time>2026-09-26T11:51:11Z</time></trkpt><trkpt lat="47.344927" lon="3.790646"><ele>351.214</ele><time>2026-09-26T11:51:15Z</time></trkpt><trkpt lat="47.344946" lon="3.790595"><ele>353.209</ele><time>2026-09-26T11:51:21Z</time></trkpt><trkpt lat="47.344946" lon="3.790595"><ele>355.254</ele><time>2026-09-26T11:51:28Z</time></trkpt></trkseg></trk></gpx>